ONEWEB-0600             
1 54664U 22166Y   26040.19113395 -.00000300  00000+0 -75801-3 0  9994
2 54664  87.9190 269.5147 0001494  79.0895 281.0407 13.21826228154604
ONEWEB-0601             
1 54665U 22166Z   26040.18290559  .00000045  00000+0  77967-4 0  9992
2 54665  87.9186 269.5339 0001648  72.8398 287.2916 13.21824673154798
ONEWEB-0602             
1 54666U 22166AA  26040.14753233 -.00000012  00000+0 -61481-4 0  9992
2 54666  87.9188 269.5464 0001288  80.0942 280.0338 13.21825508154636
ONEWEB-0603             
1 54667U 22166AB  26040.15328952 -.00000002  00000+0 -36580-4 0  9991
2 54667  87.9196 269.4884 0001547  78.5348 281.5959 13.21826016154563
ONEWEB-0604             
1 54668U 22166AC  26040.14177310 -.00000036  00000+0 -11957-3 0  9998
2 54668  87.9190 269.5059 0001552  89.1007 271.0305 13.21825136154526
ONEWEB-0605             
1 54669U 22166AD  26040.05950454  .00000118  00000+0  25414-3 0  9999
2 54669  87.9180 269.5492 0002034  70.6100 289.5253 13.21825662154588
ONEWEB-0606             
1 54670U 22166AE  26040.15657966 -.00000064  00000+0 -18601-3 0  9996
2 54670  87.9185 269.5421 0001641  90.0068 270.1254 13.21824142154656
ONEWEB-0607             
1 54671U 22166AF  26040.12367050  .00000101  00000+0  21270-3 0  9992
2 54671  87.9186 269.5117 0001545  78.8599 281.2709 13.21823717154628
ONEWEB-0608             
1 54672U 22166AG  26040.13026263  .00000153  00000+0  33937-3 0  9992
2 54672  87.9193 269.5025 0001798  68.8784 291.2542 13.21825812154635
ONEWEB-0610             
1 54673U 22166AH  26040.18621064  .00000097  00000+0  20443-3 0  9993
2 54673  87.9185 269.5188 0001787  65.2165 294.9155 13.21826182154540
ONEWEB-0611             
1 54674U 22166AJ  26040.17962167  .00000044  00000+0  75116-4 0  9995
2 54674  87.9187 269.5169 0001484  91.1202 269.0102 13.21824981154535
ONEWEB-0612             
1 54675U 22166AK  26040.19279791  .00000014  00000+0  25288-5 0  9995
2 54675  87.9193 269.4952 0001579  77.9349 282.1962 13.21827893154525
ONEWEB-0615             
1 54676U 22166AL  26040.09733709  .00000018  00000+0  12984-4 0  9991
2 54676  87.9186 269.5400 0001552  80.3474 279.7835 13.21823923154526
ONEWEB-0655             
1 54677U 22166AM  26040.14835053 -.00000030  00000+0 -10415-3 0  9995
2 54677  87.9187 269.5327 0001348  76.6242 283.5042 13.21824445154523
ONEWEB-0659             
1 54678U 22166AN  26038.42407163 -.00031239  00000+0 -76211-1 0  9990
2 54678  87.9202 269.8798 0003513  66.8210 293.3293 13.21577508154385
ONEWEB-0685             
1 54679U 22166AP  26040.08921231 -.00000350  00000+0 -87965-3 0  9993
2 54679  87.9184 269.5405 0001496  75.6428 284.4872 13.21811452154499
