[{"OBJECT_NAME":"ONEWEB-0600","OBJECT_ID":"2022-166Y","EPOCH":"2026-02-09T04:35:13.973280","MEAN_MOTION":13.21826228,"ECCENTRICITY":0.00014942,"INCLINATION":87.919,"RA_OF_ASC_NODE":269.5147,"ARG_OF_PERICENTER":79.0895,"MEAN_ANOMALY":281.0407,"EPHEMERIS_TYPE":0,"CLASSIFICATION_TYPE":"U","NORAD_CAT_ID":54664,"ELEMENT_SET_NO":999,"REV_AT_EPOCH":15460,"BSTAR":-0.00075800911,"MEAN_MOTION_DOT":-3.0e-6,"MEAN_MOTION_DDOT":0},{"OBJECT_NAME":"ONEWEB-0601","OBJECT_ID":"2022-166Z","EPOCH":"2026-02-09T04:23:23.042976","MEAN_MOTION":13.21824673,"ECCENTRICITY":0.00016483,"INCLINATION":87.9186,"RA_OF_ASC_NODE":269.5339,"ARG_OF_PERICENTER":72.8398,"MEAN_ANOMALY":287.2916,"EPHEMERIS_TYPE":0,"CLASSIFICATION_TYPE":"U","NORAD_CAT_ID":54665,"ELEMENT_SET_NO":999,"REV_AT_EPOCH":15479,"BSTAR":7.7967314e-5,"MEAN_MOTION_DOT":4.5e-7,"MEAN_MOTION_DDOT":0},{"OBJECT_NAME":"ONEWEB-0602","OBJECT_ID":"2022-166AA","EPOCH":"2026-02-09T03:32:26.793312","MEAN_MOTION":13.21825508,"ECCENTRICITY":0.00012889,"INCLINATION":87.9188,"RA_OF_ASC_NODE":269.5464,"ARG_OF_PERICENTER":80.0942,"MEAN_ANOMALY":280.0338,"EPHEMERIS_TYPE":0,"CLASSIFICATION_TYPE":"U","NORAD_CAT_ID":54666,"ELEMENT_SET_NO":999,"REV_AT_EPOCH":15463,"BSTAR":-6.148078e-5,"MEAN_MOTION_DOT":-1.2e-7,"MEAN_MOTION_DDOT":0},{"OBJECT_NAME":"ONEWEB-0603","OBJECT_ID":"2022-166AB","EPOCH":"2026-02-09T03:40:44.214528","MEAN_MOTION":13.21826016,"ECCENTRICITY":0.00015478,"INCLINATION":87.9196,"RA_OF_ASC_NODE":269.4884,"ARG_OF_PERICENTER":78.5348,"MEAN_ANOMALY":281.5959,"EPHEMERIS_TYPE":0,"CLASSIFICATION_TYPE":"U","NORAD_CAT_ID":54667,"ELEMENT_SET_NO":999,"REV_AT_EPOCH":15456,"BSTAR":-3.6579837e-5,"MEAN_MOTION_DOT":-2.0e-8,"MEAN_MOTION_DDOT":0},{"OBJECT_NAME":"ONEWEB-0604","OBJECT_ID":"2022-166AC","EPOCH":"2026-02-09T03:24:09.195840","MEAN_MOTION":13.21825136,"ECCENTRICITY":0.00015528,"INCLINATION":87.919,"RA_OF_ASC_NODE":269.5059,"ARG_OF_PERICENTER":89.1007,"MEAN_ANOMALY":271.0305,"EPHEMERIS_TYPE":0,"CLASSIFICATION_TYPE":"U","NORAD_CAT_ID":54668,"ELEMENT_SET_NO":999,"REV_AT_EPOCH":15452,"BSTAR":-0.00011956726,"MEAN_MOTION_DOT":-3.6e-7,"MEAN_MOTION_DDOT":0},{"OBJECT_NAME":"ONEWEB-0605","OBJECT_ID":"2022-166AD","EPOCH":"2026-02-09T01:25:41.192256","MEAN_MOTION":13.21825662,"ECCENTRICITY":0.00020341,"INCLINATION":87.918,"RA_OF_ASC_NODE":269.5492,"ARG_OF_PERICENTER":70.61,"MEAN_ANOMALY":289.5253,"EPHEMERIS_TYPE":0,"CLASSIFICATION_TYPE":"U","NORAD_CAT_ID":54669,"ELEMENT_SET_NO":999,"REV_AT_EPOCH":15458,"BSTAR":0.00025413809,"MEAN_MOTION_DOT":1.18e-6,"MEAN_MOTION_DDOT":0},{"OBJECT_NAME":"ONEWEB-0606","OBJECT_ID":"2022-166AE","EPOCH":"2026-02-09T03:45:28.482624","MEAN_MOTION":13.21824142,"ECCENTRICITY":0.00016412,"INCLINATION":87.9185,"RA_OF_ASC_NODE":269.5421,"ARG_OF_PERICENTER":90.0068,"MEAN_ANOMALY":270.1254,"EPHEMERIS_TYPE":0,"CLASSIFICATION_TYPE":"U","NORAD_CAT_ID":54670,"ELEMENT_SET_NO":999,"REV_AT_EPOCH":15465,"BSTAR":-0.00018600971,"MEAN_MOTION_DOT":-6.4e-7,"MEAN_MOTION_DDOT":0},{"OBJECT_NAME":"ONEWEB-0607","OBJECT_ID":"2022-166AF","EPOCH":"2026-02-09T02:58:05.131200","MEAN_MOTION":13.21823717,"ECCENTRICITY":0.00015458,"INCLINATION":87.9186,"RA_OF_ASC_NODE":269.5117,"ARG_OF_PERICENTER":78.8599,"MEAN_ANOMALY":281.2709,"EPHEMERIS_TYPE":0,"CLASSIFICATION_TYPE":"U","NORAD_CAT_ID":54671,"ELEMENT_SET_NO":999,"REV_AT_EPOCH":15462,"BSTAR":0.00021269534,"MEAN_MOTION_DOT":1.01e-6,"MEAN_MOTION_DDOT":0},{"OBJECT_NAME":"ONEWEB-0608","OBJECT_ID":"2022-166AG","EPOCH":"2026-02-09T03:07:34.691232","MEAN_MOTION":13.21825812,"ECCENTRICITY":0.00017988,"INCLINATION":87.9193,"RA_OF_ASC_NODE":269.5025,"ARG_OF_PERICENTER":68.8784,"MEAN_ANOMALY":291.2542,"EPHEMERIS_TYPE":0,"CLASSIFICATION_TYPE":"U","NORAD_CAT_ID":54672,"ELEMENT_SET_NO":999,"REV_AT_EPOCH":15463,"BSTAR":0.00033937005,"MEAN_MOTION_DOT":1.53e-6,"MEAN_MOTION_DDOT":0},{"OBJECT_NAME":"ONEWEB-0610","OBJECT_ID":"2022-166AH","EPOCH":"2026-02-09T04:28:08.599296","MEAN_MOTION":13.21826182,"ECCENTRICITY":0.00017876,"INCLINATION":87.9185,"RA_OF_ASC_NODE":269.5188,"ARG_OF_PERICENTER":65.2165,"MEAN_ANOMALY":294.9155,"EPHEMERIS_TYPE":0,"CLASSIFICATION_TYPE":"U","NORAD_CAT_ID":54673,"ELEMENT_SET_NO":999,"REV_AT_EPOCH":15454,"BSTAR":0.00020442967,"MEAN_MOTION_DOT":9.7e-7,"MEAN_MOTION_DDOT":0},{"OBJECT_NAME":"ONEWEB-0611","OBJECT_ID":"2022-166AJ","EPOCH":"2026-02-09T04:18:39.312288","MEAN_MOTION":13.21824981,"ECCENTRICITY":0.00014849,"INCLINATION":87.9187,"RA_OF_ASC_NODE":269.5169,"ARG_OF_PERICENTER":91.1202,"MEAN_ANOMALY":269.0102,"EPHEMERIS_TYPE":0,"CLASSIFICATION_TYPE":"U","NORAD_CAT_ID":54674,"ELEMENT_SET_NO":999,"REV_AT_EPOCH":15453,"BSTAR":7.5115683e-5,"MEAN_MOTION_DOT":4.4e-7,"MEAN_MOTION_DDOT":0},{"OBJECT_NAME":"ONEWEB-0612","OBJECT_ID":"2022-166AK","EPOCH":"2026-02-09T04:37:37.739424","MEAN_MOTION":13.21827893,"ECCENTRICITY":0.00015799,"INCLINATION":87.9193,"RA_OF_ASC_NODE":269.4952,"ARG_OF_PERICENTER":77.9349,"MEAN_ANOMALY":282.1962,"EPHEMERIS_TYPE":0,"CLASSIFICATION_TYPE":"U","NORAD_CAT_ID":54675,"ELEMENT_SET_NO":999,"REV_AT_EPOCH":15452,"BSTAR":2.528756e-6,"MEAN_MOTION_DOT":1.4e-7,"MEAN_MOTION_DDOT":0},{"OBJECT_NAME":"ONEWEB-0615","OBJECT_ID":"2022-166AL","EPOCH":"2026-02-09T02:20:09.924576","MEAN_MOTION":13.21823923,"ECCENTRICITY":0.00015522,"INCLINATION":87.9186,"RA_OF_ASC_NODE":269.54,"ARG_OF_PERICENTER":80.3474,"MEAN_ANOMALY":279.7835,"EPHEMERIS_TYPE":0,"CLASSIFICATION_TYPE":"U","NORAD_CAT_ID":54676,"ELEMENT_SET_NO":999,"REV_AT_EPOCH":15452,"BSTAR":1.2984251e-5,"MEAN_MOTION_DOT":1.8e-7,"MEAN_MOTION_DDOT":0},{"OBJECT_NAME":"ONEWEB-0655","OBJECT_ID":"2022-166AM","EPOCH":"2026-02-09T03:33:37.485792","MEAN_MOTION":13.21824445,"ECCENTRICITY":0.00013484,"INCLINATION":87.9187,"RA_OF_ASC_NODE":269.5327,"ARG_OF_PERICENTER":76.6242,"MEAN_ANOMALY":283.5042,"EPHEMERIS_TYPE":0,"CLASSIFICATION_TYPE":"U","NORAD_CAT_ID":54677,"ELEMENT_SET_NO":999,"REV_AT_EPOCH":15452,"BSTAR":-0.00010414763,"MEAN_MOTION_DOT":-3.0e-7,"MEAN_MOTION_DDOT":0},{"OBJECT_NAME":"ONEWEB-0659","OBJECT_ID":"2022-166AN","EPOCH":"2026-02-07T10:10:39.788832","MEAN_MOTION":13.21577508,"ECCENTRICITY":0.00035138,"INCLINATION":87.9202,"RA_OF_ASC_NODE":269.8798,"ARG_OF_PERICENTER":66.821,"MEAN_ANOMALY":293.3293,"EPHEMERIS_TYPE":0,"CLASSIFICATION_TYPE":"U","NORAD_CAT_ID":54678,"ELEMENT_SET_NO":999,"REV_AT_EPOCH":15438,"BSTAR":-0.076210602,"MEAN_MOTION_DOT":-0.00031239,"MEAN_MOTION_DDOT":0},{"OBJECT_NAME":"ONEWEB-0685","OBJECT_ID":"2022-166AP","EPOCH":"2026-02-09T02:08:27.943584","MEAN_MOTION":13.21811452,"ECCENTRICITY":0.00014968,"INCLINATION":87.9184,"RA_OF_ASC_NODE":269.5405,"ARG_OF_PERICENTER":75.6428,"MEAN_ANOMALY":284.4872,"EPHEMERIS_TYPE":0,"CLASSIFICATION_TYPE":"U","NORAD_CAT_ID":54679,"ELEMENT_SET_NO":999,"REV_AT_EPOCH":15449,"BSTAR":-0.00087964506,"MEAN_MOTION_DOT":-3.5e-6,"MEAN_MOTION_DDOT":0}]
